FENGYUN 1C DEB          
1 30838U 99025AVY 26073.69180025  .00010060  00000+0  26074-2 0  9993
2 30838  99.0430 359.0381 0033616 246.4984 113.2674 14.49659553986451
FENGYUN 1C DEB          
1 30840U 99025AWA 26073.47749930  .00005334  00000+0  76765-3 0  9999
2 30840  98.0217  87.1656 0216300  81.8676 280.7000 14.61997475744718
FENGYUN 1C DEB          
1 30843U 99025AWD 26073.94149092  .00001013  00000+0  22680-3 0  9994
2 30843  98.8276 155.4521 0147490 200.2456 159.2852 14.52644746  6299
FENGYUN 1C DEB          
1 30845U 99025AWF 26073.94404356  .00000543  00000+0  51212-3 0  9993
2 30845  98.3862  68.6728 0193425  21.1070  34.5630 13.76938037955120
FENGYUN 1C DEB          
1 30846U 99025AWG 26073.49135796  .00002628  00000+0  80005-3 0  9991
2 30846  99.3279 260.0981 0053999  67.7875 319.9639 14.42162654992525
FENGYUN 1C DEB          
1 30847U 99025AWH 26073.73515777  .00003448  00000+0  16750-2 0  9996
2 30847  98.7365 237.3282 0063844  67.2108  61.1577 14.17848566973587
FENGYUN 1C DEB          
1 30848U 99025AWJ 26072.50679046  .00003112  00000+0  10936-2 0  9999
2 30848  99.0609 276.7816 0043440  70.3831 290.2034 14.35177026986089
FENGYUN 1C DEB          
1 30849U 99025AWK 26073.66925433  .00003004  00000+0  14300-2 0  9991
2 30849  99.0368 140.5378 0050605 105.9474  45.2388 14.19452305976764
FENGYUN 1C DEB          
1 30850U 99025AWL 26073.61387863  .00004267  00000+0  20173-2 0  9994
2 30850  98.3952 298.9793 0109715 292.5487 123.6127 14.17076706970996
FENGYUN 1C DEB          
1 30852U 99025AWN 26073.73224978  .00000919  00000+0  53302-3 0  9997
2 30852  98.7289  93.8308 0055773 335.5313  24.3213 14.10467890976797
FENGYUN 1C DEB          
1 30856U 99025AWS 26073.46180992  .00015159  00000+0  37858-2 0  9997
2 30856  98.2082 260.5606 0082521 316.6811  72.5603 14.49574536978535
FENGYUN 1C DEB          
1 30857U 99025AWT 26072.94840152  .00018911  00000+0  43296-2 0  9993
2 30857  98.9743  74.1040 0040046  22.5068 337.7873 14.55166283980486
FENGYUN 1C DEB          
1 30858U 99025AWU 26073.82702861  .00000706  00000+0  36483-3 0  9990
2 30858  98.7834 135.5413 0030003 203.4036 221.9089 14.17942635982856
FENGYUN 1C DEB          
1 30859U 99025AWV 26073.88908550  .00014307  00000+0  35767-2 0  9995
2 30859  98.9175 134.3994 0033326 118.1184 242.3383 14.51267995983701
FENGYUN 1C DEB          
1 30860U 99025AWW 26073.66236931  .00003132  00000+0  13174-2 0  9992
2 30860  98.8938 153.5385 0037225 279.9991  79.6988 14.26162243978269
FENGYUN 1C DEB          
1 30862U 99025AWY 26073.05518526  .00011113  00000+0  31316-2 0  9996
2 30862  98.9515 173.6114 0050425 245.6365 291.1591 14.45206260980373
