[{"OBJECT_NAME":"FENGYUN 1C DEB","OBJECT_ID":"1999-025AVY","EPOCH":"2026-03-14T16:36:11.541600","MEAN_MOTION":14.49659553,"ECCENTRICITY":0.00336164,"INCLINATION":99.043,"RA_OF_ASC_NODE":359.0381,"ARG_OF_PERICENTER":246.4984,"MEAN_ANOMALY":113.2674,"EPHEMERIS_TYPE":0,"CLASSIFICATION_TYPE":"U","NORAD_CAT_ID":30838,"ELEMENT_SET_NO":999,"REV_AT_EPOCH":98645,"BSTAR":0.0026073584,"MEAN_MOTION_DOT":0.0001006,"MEAN_MOTION_DDOT":0},{"OBJECT_NAME":"FENGYUN 1C DEB","OBJECT_ID":"1999-025AWA","EPOCH":"2026-03-14T11:27:35.939520","MEAN_MOTION":14.61997475,"ECCENTRICITY":0.02163007,"INCLINATION":98.0217,"RA_OF_ASC_NODE":87.1656,"ARG_OF_PERICENTER":81.8676,"MEAN_ANOMALY":280.7,"EPHEMERIS_TYPE":0,"CLASSIFICATION_TYPE":"U","NORAD_CAT_ID":30840,"ELEMENT_SET_NO":999,"REV_AT_EPOCH":74471,"BSTAR":0.00076765222,"MEAN_MOTION_DOT":5.334e-5,"MEAN_MOTION_DDOT":0},{"OBJECT_NAME":"FENGYUN 1C DEB","OBJECT_ID":"1999-025AWD","EPOCH":"2026-03-14T22:35:44.815488","MEAN_MOTION":14.52644746,"ECCENTRICITY":0.01474901,"INCLINATION":98.8276,"RA_OF_ASC_NODE":155.4521,"ARG_OF_PERICENTER":200.2456,"MEAN_ANOMALY":159.2852,"EPHEMERIS_TYPE":0,"CLASSIFICATION_TYPE":"U","NORAD_CAT_ID":30843,"ELEMENT_SET_NO":999,"REV_AT_EPOCH":629,"BSTAR":0.0002267988,"MEAN_MOTION_DOT":1.013e-5,"MEAN_MOTION_DDOT":0},{"OBJECT_NAME":"FENGYUN 1C DEB","OBJECT_ID":"1999-025AWF","EPOCH":"2026-03-14T22:39:25.363584","MEAN_MOTION":13.76938037,"ECCENTRICITY":0.01934254,"INCLINATION":98.3862,"RA_OF_ASC_NODE":68.6728,"ARG_OF_PERICENTER":21.107,"MEAN_ANOMALY":34.563,"EPHEMERIS_TYPE":0,"CLASSIFICATION_TYPE":"U","NORAD_CAT_ID":30845,"ELEMENT_SET_NO":999,"REV_AT_EPOCH":95512,"BSTAR":0.00051212068,"MEAN_MOTION_DOT":5.43e-6,"MEAN_MOTION_DDOT":0},{"OBJECT_NAME":"FENGYUN 1C DEB","OBJECT_ID":"1999-025AWG","EPOCH":"2026-03-14T11:47:33.327744","MEAN_MOTION":14.42162654,"ECCENTRICITY":0.00539997,"INCLINATION":99.3279,"RA_OF_ASC_NODE":260.0981,"ARG_OF_PERICENTER":67.7875,"MEAN_ANOMALY":319.9639,"EPHEMERIS_TYPE":0,"CLASSIFICATION_TYPE":"U","NORAD_CAT_ID":30846,"ELEMENT_SET_NO":999,"REV_AT_EPOCH":99252,"BSTAR":0.00080005084,"MEAN_MOTION_DOT":2.628e-5,"MEAN_MOTION_DDOT":0},{"OBJECT_NAME":"FENGYUN 1C DEB","OBJECT_ID":"1999-025AWH","EPOCH":"2026-03-14T17:38:37.631328","MEAN_MOTION":14.17848566,"ECCENTRICITY":0.00638442,"INCLINATION":98.7365,"RA_OF_ASC_NODE":237.3282,"ARG_OF_PERICENTER":67.2108,"MEAN_ANOMALY":61.1577,"EPHEMERIS_TYPE":0,"CLASSIFICATION_TYPE":"U","NORAD_CAT_ID":30847,"ELEMENT_SET_NO":999,"REV_AT_EPOCH":97358,"BSTAR":0.0016749854,"MEAN_MOTION_DOT":3.448e-5,"MEAN_MOTION_DDOT":0},{"OBJECT_NAME":"FENGYUN 1C DEB","OBJECT_ID":"1999-025AWJ","EPOCH":"2026-03-13T12:09:46.695744","MEAN_MOTION":14.35177026,"ECCENTRICITY":0.00434409,"INCLINATION":99.0609,"RA_OF_ASC_NODE":276.7816,"ARG_OF_PERICENTER":70.3831,"MEAN_ANOMALY":290.2034,"EPHEMERIS_TYPE":0,"CLASSIFICATION_TYPE":"U","NORAD_CAT_ID":30848,"ELEMENT_SET_NO":999,"REV_AT_EPOCH":98608,"BSTAR":0.0010936269,"MEAN_MOTION_DOT":3.112e-5,"MEAN_MOTION_DDOT":0},{"OBJECT_NAME":"FENGYUN 1C DEB","OBJECT_ID":"1999-025AWK","EPOCH":"2026-03-14T16:03:43.574112","MEAN_MOTION":14.19452305,"ECCENTRICITY":0.00506051,"INCLINATION":99.0368,"RA_OF_ASC_NODE":140.5378,"ARG_OF_PERICENTER":105.9474,"MEAN_ANOMALY":45.2388,"EPHEMERIS_TYPE":0,"CLASSIFICATION_TYPE":"U","NORAD_CAT_ID":30849,"ELEMENT_SET_NO":999,"REV_AT_EPOCH":97676,"BSTAR":0.0014299837,"MEAN_MOTION_DOT":3.004e-5,"MEAN_MOTION_DDOT":0},{"OBJECT_NAME":"FENGYUN 1C DEB","OBJECT_ID":"1999-025AWL","EPOCH":"2026-03-14T14:43:59.113632","MEAN_MOTION":14.17076706,"ECCENTRICITY":0.01097151,"INCLINATION":98.3952,"RA_OF_ASC_NODE":298.9793,"ARG_OF_PERICENTER":292.5487,"MEAN_ANOMALY":123.6127,"EPHEMERIS_TYPE":0,"CLASSIFICATION_TYPE":"U","NORAD_CAT_ID":30850,"ELEMENT_SET_NO":999,"REV_AT_EPOCH":97099,"BSTAR":0.0020173279,"MEAN_MOTION_DOT":4.267e-5,"MEAN_MOTION_DDOT":0},{"OBJECT_NAME":"FENGYUN 1C DEB","OBJECT_ID":"1999-025AWN","EPOCH":"2026-03-14T17:34:26.380992","MEAN_MOTION":14.1046789,"ECCENTRICITY":0.00557733,"INCLINATION":98.7289,"RA_OF_ASC_NODE":93.8308,"ARG_OF_PERICENTER":335.5313,"MEAN_ANOMALY":24.3213,"EPHEMERIS_TYPE":0,"CLASSIFICATION_TYPE":"U","NORAD_CAT_ID":30852,"ELEMENT_SET_NO":999,"REV_AT_EPOCH":97679,"BSTAR":0.00053301885,"MEAN_MOTION_DOT":9.19e-6,"MEAN_MOTION_DDOT":0},{"OBJECT_NAME":"FENGYUN 1C DEB","OBJECT_ID":"1999-025AWS","EPOCH":"2026-03-14T11:05:00.377088","MEAN_MOTION":14.49574536,"ECCENTRICITY":0.00825213,"INCLINATION":98.2082,"RA_OF_ASC_NODE":260.5606,"ARG_OF_PERICENTER":316.6811,"MEAN_ANOMALY":72.5603,"EPHEMERIS_TYPE":0,"CLASSIFICATION_TYPE":"U","NORAD_CAT_ID":30856,"ELEMENT_SET_NO":999,"REV_AT_EPOCH":97853,"BSTAR":0.0037858154,"MEAN_MOTION_DOT":0.00015159,"MEAN_MOTION_DDOT":0},{"OBJECT_NAME":"FENGYUN 1C DEB","OBJECT_ID":"1999-025AWT","EPOCH":"2026-03-13T22:45:41.891328","MEAN_MOTION":14.55166283,"ECCENTRICITY":0.00400465,"INCLINATION":98.9743,"RA_OF_ASC_NODE":74.104,"ARG_OF_PERICENTER":22.5068,"MEAN_ANOMALY":337.7873,"EPHEMERIS_TYPE":0,"CLASSIFICATION_TYPE":"U","NORAD_CAT_ID":30857,"ELEMENT_SET_NO":999,"REV_AT_EPOCH":98048,"BSTAR":0.0043296397,"MEAN_MOTION_DOT":0.00018911,"MEAN_MOTION_DDOT":0},{"OBJECT_NAME":"FENGYUN 1C DEB","OBJECT_ID":"1999-025AWU","EPOCH":"2026-03-14T19:50:55.271904","MEAN_MOTION":14.17942635,"ECCENTRICITY":0.00300034,"INCLINATION":98.7834,"RA_OF_ASC_NODE":135.5413,"ARG_OF_PERICENTER":203.4036,"MEAN_ANOMALY":221.9089,"EPHEMERIS_TYPE":0,"CLASSIFICATION_TYPE":"U","NORAD_CAT_ID":30858,"ELEMENT_SET_NO":999,"REV_AT_EPOCH":98285,"BSTAR":0.00036483323,"MEAN_MOTION_DOT":7.06e-6,"MEAN_MOTION_DDOT":0},{"OBJECT_NAME":"FENGYUN 1C DEB","OBJECT_ID":"1999-025AWV","EPOCH":"2026-03-14T21:20:16.987200","MEAN_MOTION":14.51267995,"ECCENTRICITY":0.00333267,"INCLINATION":98.9175,"RA_OF_ASC_NODE":134.3994,"ARG_OF_PERICENTER":118.1184,"MEAN_ANOMALY":242.3383,"EPHEMERIS_TYPE":0,"CLASSIFICATION_TYPE":"U","NORAD_CAT_ID":30859,"ELEMENT_SET_NO":999,"REV_AT_EPOCH":98370,"BSTAR":0.0035766727,"MEAN_MOTION_DOT":0.00014307,"MEAN_MOTION_DDOT":0},{"OBJECT_NAME":"FENGYUN 1C DEB","OBJECT_ID":"1999-025AWW","EPOCH":"2026-03-14T15:53:48.708384","MEAN_MOTION":14.26162243,"ECCENTRICITY":0.00372253,"INCLINATION":98.8938,"RA_OF_ASC_NODE":153.5385,"ARG_OF_PERICENTER":279.9991,"MEAN_ANOMALY":79.6988,"EPHEMERIS_TYPE":0,"CLASSIFICATION_TYPE":"U","NORAD_CAT_ID":30860,"ELEMENT_SET_NO":999,"REV_AT_EPOCH":97826,"BSTAR":0.00131745,"MEAN_MOTION_DOT":3.132e-5,"MEAN_MOTION_DDOT":0},{"OBJECT_NAME":"FENGYUN 1C DEB","OBJECT_ID":"1999-025AWY","EPOCH":"2026-03-14T01:19:28.006464","MEAN_MOTION":14.4520626,"ECCENTRICITY":0.00504251,"INCLINATION":98.9515,"RA_OF_ASC_NODE":173.6114,"ARG_OF_PERICENTER":245.6365,"MEAN_ANOMALY":291.1591,"EPHEMERIS_TYPE":0,"CLASSIFICATION_TYPE":"U","NORAD_CAT_ID":30862,"ELEMENT_SET_NO":999,"REV_AT_EPOCH":98037,"BSTAR":0.0031315503,"MEAN_MOTION_DOT":0.00011113,"MEAN_MOTION_DDOT":0}]
